{
  "norad_id": 58159,
  "name": "STARLINK-30788",
  "history": [
    {
      "epoch": "2026-03-28T13:06:25.561152Z",
      "apogee_km": 476.0250204314125,
      "perigee_km": 474.44463288818406,
      "latitude_deg": -2.1450101822291663e-05,
      "longitude_deg": 109.6434539474543,
      "height_km": 476.06085560529937,
      "semi_major_axis_km": 6853.371826659798,
      "eccentricity": 0.0001153,
      "inclination_deg": 53.1597,
      "raan_deg": 132.215,
      "arg_perigee_deg": 84.7589,
      "mean_anomaly_deg": 275.3543,
      "mean_motion_rev_day": 15.30193383
    },
    {
      "epoch": "2026-03-30T05:51:48.128256Z",
      "apogee_km": 475.9457565125167,
      "perigee_km": 474.42390786646047,
      "latitude_deg": 1.9203305834960905e-05,
      "longitude_deg": -151.26354522720928,
      "height_km": 475.8498620868581,
      "semi_major_axis_km": 6853.321832189488,
      "eccentricity": 0.00011103,
      "inclination_deg": 53.1595,
      "raan_deg": 124.3258,
      "arg_perigee_deg": 72.1466,
      "mean_anomaly_deg": 287.9656,
      "mean_motion_rev_day": 15.30210127
    },
    {
      "epoch": "2026-03-30T12:08:00.641472Z",
      "apogee_km": 476.0402981795032,
      "perigee_km": 474.3776764429822,
      "latitude_deg": -4.2379082208388865e-06,
      "longitude_deg": 113.21359360477588,
      "height_km": 475.89504756519824,
      "semi_major_axis_km": 6853.345987311242,
      "eccentricity": 0.0001213,
      "inclination_deg": 53.1588,
      "raan_deg": 123.1126,
      "arg_perigee_deg": 75.2236,
      "mean_anomaly_deg": 284.8899,
      "mean_motion_rev_day": 15.30202037
    },
    {
      "epoch": "2026-03-31T11:38:49.449984Z",
      "apogee_km": 476.08979374277897,
      "perigee_km": 474.396323530289,
      "latitude_deg": -9.011245553470776e-06,
      "longitude_deg": 114.9956549909251,
      "height_km": 475.9641220370184,
      "semi_major_axis_km": 6853.380058636533,
      "eccentricity": 0.00012355,
      "inclination_deg": 53.1595,
      "raan_deg": 118.5637,
      "arg_perigee_deg": 77.931,
      "mean_anomaly_deg": 282.1829,
      "mean_motion_rev_day": 15.30190626
    },
    {
      "epoch": "2026-04-01T18:59:53.098656Z",
      "apogee_km": 476.09571169637275,
      "perigee_km": 474.3659216594442,
      "latitude_deg": 2.27009864275614e-05,
      "longitude_deg": -2.625162857474915,
      "height_km": 475.91365817428016,
      "semi_major_axis_km": 6853.367816677908,
      "eccentricity": 0.0001262,
      "inclination_deg": 53.1593,
      "raan_deg": 112.4956,
      "arg_perigee_deg": 75.591,
      "mean_anomaly_deg": 284.5231,
      "mean_motion_rev_day": 15.30194726
    },
    {
      "epoch": "2026-04-02T18:30:40.958496Z",
      "apogee_km": 476.1507942862054,
      "perigee_km": 474.3184768457204,
      "latitude_deg": -3.14785624395865e-05,
      "longitude_deg": -0.8416751163920484,
      "height_km": 476.05925247359426,
      "semi_major_axis_km": 6853.371635565963,
      "eccentricity": 0.00013368,
      "inclination_deg": 53.1599,
      "raan_deg": 107.9442,
      "arg_perigee_deg": 85.4069,
      "mean_anomaly_deg": 274.7084,
      "mean_motion_rev_day": 15.30193447
    },
    {
      "epoch": "2026-04-03T07:03:06.744384Z",
      "apogee_km": 476.1732832630951,
      "perigee_km": 474.3077938970946,
      "latitude_deg": -4.3678809913430576e-05,
      "longitude_deg": 168.1075548595602,
      "height_km": 476.1810729305434,
      "semi_major_axis_km": 6853.377538580095,
      "eccentricity": 0.0001361,
      "inclination_deg": 53.1613,
      "raan_deg": 105.5159,
      "arg_perigee_deg": 92.6079,
      "mean_anomaly_deg": 267.5077,
      "mean_motion_rev_day": 15.3019147
    },
    {
      "epoch": "2026-04-04T09:42:01.002528Z",
      "apogee_km": 476.0744359528435,
      "perigee_km": 474.38398464341026,
      "latitude_deg": 1.9401635033510998e-05,
      "longitude_deg": 122.13051471132218,
      "height_km": 476.0744315743942,
      "semi_major_axis_km": 6853.366210298126,
      "eccentricity": 0.00012333,
      "inclination_deg": 53.1605,
      "raan_deg": 100.3593,
      "arg_perigee_deg": 86.4078,
      "mean_anomaly_deg": 273.7064,
      "mean_motion_rev_day": 15.30195264
    },
    {
      "epoch": "2026-04-05T07:38:46.470624Z",
      "apogee_km": 476.14742972464956,
      "perigee_km": 474.39789130651207,
      "latitude_deg": 8.199594282943442e-06,
      "longitude_deg": 147.79236613941472,
      "height_km": 476.2002616279633,
      "semi_major_axis_km": 6853.40966051558,
      "eccentricity": 0.00012764,
      "inclination_deg": 53.1598,
      "raan_deg": 96.1119,
      "arg_perigee_deg": 91.9368,
      "mean_anomaly_deg": 268.1779,
      "mean_motion_rev_day": 15.30180712
    },
    {
      "epoch": "2026-04-06T05:35:30.767136Z",
      "apogee_km": 476.04024357804155,
      "perigee_km": 474.42915295921375,
      "latitude_deg": 5.0655685047801704e-05,
      "longitude_deg": 173.457351848403,
      "height_km": 476.27374129020956,
      "semi_major_axis_km": 6853.371698268627,
      "eccentricity": 0.00011754,
      "inclination_deg": 53.16,
      "raan_deg": 91.8627,
      "arg_perigee_deg": 100.0683,
      "mean_anomaly_deg": 260.0451,
      "mean_motion_rev_day": 15.30193426
    },
    {
      "epoch": "2026-04-07T03:32:15.595872Z",
      "apogee_km": 476.0331895687259,
      "perigee_km": 474.46006389104696,
      "latitude_deg": 5.4414506916088164e-05,
      "longitude_deg": -160.8775154823088,
      "height_km": 476.23852493155016,
      "semi_major_axis_km": 6853.383626729887,
      "eccentricity": 0.00011477,
      "inclination_deg": 53.1602,
      "raan_deg": 87.6159,
      "arg_perigee_deg": 96.8371,
      "mean_anomaly_deg": 263.2761,
      "mean_motion_rev_day": 15.30189431
    },
    {
      "epoch": "2026-04-08T07:45:13.207392Z",
      "apogee_km": 476.09793612578505,
      "perigee_km": 474.37883544401484,
      "latitude_deg": 4.7213362087564315e-05,
      "longitude_deg": 129.26343757903268,
      "height_km": 476.120105105423,
      "semi_major_axis_km": 6853.3753857849,
      "eccentricity": 0.00012542,
      "inclination_deg": 53.1605,
      "raan_deg": 82.1557,
      "arg_perigee_deg": 88.9053,
      "mean_anomaly_deg": 271.2092,
      "mean_motion_rev_day": 15.30192191
    },
    {
      "epoch": "2026-04-09T21:22:29.972352Z",
      "apogee_km": 476.0812867556042,
      "perigee_km": 474.3939859201382,
      "latitude_deg": -1.570949247726312e-05,
      "longitude_deg": -83.88372084037682,
      "height_km": 476.2142769858806,
      "semi_major_axis_km": 6853.374636337871,
      "eccentricity": 0.0001231,
      "inclination_deg": 53.1605,
      "raan_deg": 74.8735,
      "arg_perigee_deg": 95.3358,
      "mean_anomaly_deg": 264.7783,
      "mean_motion_rev_day": 15.30192442
    },
    {
      "epoch": "2026-04-10T06:46:48.755136Z",
      "apogee_km": 476.0708727063502,
      "perigee_km": 474.3660320040226,
      "latitude_deg": -2.034280840078141e-05,
      "longitude_deg": 132.83355456030034,
      "height_km": 476.11970147724236,
      "semi_major_axis_km": 6853.355452355187,
      "eccentricity": 0.00012438,
      "inclination_deg": 53.1603,
      "raan_deg": 73.0553,
      "arg_perigee_deg": 90.2086,
      "mean_anomaly_deg": 269.9057,
      "mean_motion_rev_day": 15.30198867
    },
    {
      "epoch": "2026-04-11T04:43:33.728160Z",
      "apogee_km": 476.18045056496703,
      "perigee_km": 474.31249236598524,
      "latitude_deg": 1.301755159168686e-05,
      "longitude_deg": 158.4976067554306,
      "height_km": 476.1249680583936,
      "semi_major_axis_km": 6853.383471465476,
      "eccentricity": 0.00013628,
      "inclination_deg": 53.1597,
      "raan_deg": 68.808,
      "arg_perigee_deg": 88.809,
      "mean_anomaly_deg": 271.3067,
      "mean_motion_rev_day": 15.30189483
    },
    {
      "epoch": "2026-04-13T06:53:15.951552Z",
      "apogee_km": 476.05096050331485,
      "perigee_km": 474.42287299565214,
      "latitude_deg": 6.970518107054941e-06,
      "longitude_deg": 114.30170086192896,
      "height_km": 475.9422751005845,
      "semi_major_axis_km": 6853.373916749483,
      "eccentricity": 0.00011878,
      "inclination_deg": 53.1612,
      "raan_deg": 59.0981,
      "arg_perigee_deg": 76.285,
      "mean_anomaly_deg": 283.8283,
      "mean_motion_rev_day": 15.30192683
    },
    {
      "epoch": "2026-04-14T20:30:32.700096Z",
      "apogee_km": 476.177932737407,
      "perigee_km": 474.29051430245,
      "latitude_deg": -3.353847163587974e-05,
      "longitude_deg": -98.84206588078654,
      "height_km": 475.9802005250413,
      "semi_major_axis_km": 6853.371223519928,
      "eccentricity": 0.0001377,
      "inclination_deg": 53.1606,
      "raan_deg": 51.8192,
      "arg_perigee_deg": 80.7284,
      "mean_anomaly_deg": 279.3872,
      "mean_motion_rev_day": 15.30193585
    },
    {
      "epoch": "2026-04-15T13:45:08.197056Z",
      "apogee_km": 476.2334348494487,
      "perigee_km": 474.26103086723197,
      "latitude_deg": -2.9980842696672352e-05,
      "longitude_deg": -1.5353186611605438,
      "height_km": 476.025261861879,
      "semi_major_axis_km": 6853.38423285834,
      "eccentricity": 0.0001439,
      "inclination_deg": 53.1612,
      "raan_deg": 48.482,
      "arg_perigee_deg": 83.0134,
      "mean_anomaly_deg": 277.103,
      "mean_motion_rev_day": 15.30189228
    },
    {
      "epoch": "2026-04-16T13:15:56.151072Z",
      "apogee_km": 476.41536309981075,
      "perigee_km": 474.07972964640703,
      "latitude_deg": 6.355511955644521e-06,
      "longitude_deg": 0.2474441474033714,
      "height_km": 476.11394296304593,
      "semi_major_axis_km": 6853.384546373109,
      "eccentricity": 0.0001704,
      "inclination_deg": 53.1615,
      "raan_deg": 43.9302,
      "arg_perigee_deg": 88.4677,
      "mean_anomaly_deg": 271.6519,
      "mean_motion_rev_day": 15.30189123
    }
  ]
}